AOR-E (EGNOS/PRN 120)   
1 24307U 96053A   13054.32129663 -.00000132  00000-0  10000-3 0  5957
2 24307   0.0744  25.0192 0005855 302.4423 286.0286  1.00271012 60296
ARTEMIS (EGNOS/PRN 124) 
1 26863U 01029A   13054.19410737  .00000115  00000-0  10000-3 0  4437
2 26863  10.4148  51.2264 0002588 301.0412 252.2215  1.00273463 43652
MTSAT-1R (MSAS/PRN 129) 
1 28622U 05006A   13052.48863259 -.00000290  00000-0  10000-3 0  8239
2 28622   0.0472 296.3824 0001103  43.0234 128.0690  1.00273416 29247
CRE (WAAS/PRN 138)      
1 28868U 05036A   13054.27683786 -.00000083  00000-0  10000-3 0  1589
2 28868   0.0141  73.6566 0001219 228.6043 203.4111  1.00272513 27407
CRW (WAAS/PRN 135)      
1 28884U 05041A   13051.44865469  .00000069  00000-0  10000-3 0  4529
2 28884   0.0493 275.3189 0001320  45.5224 218.1686  1.00271494 26953
IOR-W (EGNOS/PRN 126)   
1 28899U 05044A   13053.07071126  .00000131  00000-0  10000-3 0  5923
2 28899   2.2662 346.0796 0002597 338.8819 237.6923  1.00274421 26746
MTSAT-2 (MSAS/PRN 137)  
1 28937U 06004A   13053.48389027 -.00000252  00000-0  10000-3 0  3428
2 28937   0.0130 263.4565 0004785  64.8340 143.4195  1.00272307 25731
AMR (WAAS/PRN 133)      
1 33278U 08039A   13053.20553947 -.00000146  00000-0  10000-3 0   683
2 33278   3.0071 345.7268 0002628 337.6659 165.2054  1.00272023 16577
QZS-1 (QZSS/PRN 183)    
1 37158U 10045A   13053.67801884 -.00000184  00000-0  10000-3 0  4845
2 37158  40.6522 182.2629 0749085 269.9907  81.0733  1.00265486  8990
GSAT-8 (GAGAN/PRN 127)  
1 37605U 11022A   13054.82289168  .00000076  00000-0  10000-3 0  4042
2 37605   0.0487 259.0229 0006149  24.2768 221.8457  1.00273605  6504
LUCH 5A (SDCM/PRN 140)  
1 37951U 11074B   13053.84559390 -.00000058  00000-0  00000+0 0  2876
2 37951   3.9453 261.0570 0002625  12.7762 350.5028  1.00270131  4431
GSAT-10 (GAGAN/PRN 128) 
1 38779U 12051B   13054.87367434 -.00000173  00000-0  10000-3 0   973
2 38779   0.0930 261.3632 0001255  44.7748 245.2466  1.00272173  1540
LUCH 5B (SDCM/PRN 125)  
1 38977U 12061A   13054.26326483 -.00000136  00000-0  00000+0 0   925
2 38977   0.3367 122.3544 0001126 262.8436 206.8159  1.00270073  1425
